PROBA-1                 
1 26958U 01049B   26164.28679611  .00002711  00000+0  17698-3 0  9997
2 26958  97.9605 172.6829 0056001 134.8264 225.7535 15.07482928343031
CUTE-1 (CO-55)          
1 27844U 03031E   26163.96278740  .00000273  00000+0  13691-3 0  9997
2 27844  98.6734 172.5745 0009215 190.4426 169.6563 14.24333311191077
CUBESAT XI-IV (CO-57)   
1 27848U 03031J   26164.30054322  .00000231  00000+0  12072-3 0  9994
2 27848  98.6768 172.6242 0008786 208.9475 151.1218 14.23618930190829
APRIZESAT 4             
1 35684U 09041D   26164.14371274  .00000597  00000+0  77891-4 0  9994
2 35684  98.1412 239.3836 0042669 336.4023  23.5232 14.83874405910769
APRIZESAT 3             
1 35686U 09041F   26164.22020731  .00001435  00000+0  12809-3 0  9993
2 35686  98.2053 317.2542 0062743  80.5078 280.3226 14.96229528915782
PROBA-2                 
1 36037U 09059B   26164.25148966  .00000175  00000+0  51420-4 0  9990
2 36037  98.2449 347.6589 0012056 295.5831  64.4120 14.54860849880952
APRIZESAT 5             
1 37792U 11044E   26164.08881588  .00001047  00000+0  13927-3 0  9999
2 37792  98.2455  97.0131 0052670  17.4420 342.8585 14.81067653798181
APRIZESAT 6             
1 37793U 11044F   26164.29548956  .00000684  00000+0  10353-3 0  9998
2 37793  98.2369  74.7156 0044484  98.1107  18.4461 14.76910502796571
PROBA-V                 
1 39159U 13021A   26164.18320780  .00000064  00000+0  46163-4 0  9995
2 39159  98.3583 142.9875 0004993 132.9393 227.2206 14.23596263680541
APRIZESAT 7             
1 39416U 13066A   26163.86048178  .00000888  00000+0  93384-4 0  9993
2 39416  97.7708 117.1426 0034669 223.9352 135.9109 14.91555442680584
APRIZESAT 8             
1 39425U 13066K   26163.83672406  .00000941  00000+0  10788-3 0  9993
2 39425  97.8221 111.3653 0044593 301.3371  58.3485 14.87645103679023
BUGSAT-1 (TITA)         
1 40014U 14033E   26164.27289230  .00007961  00000+0  41964-3 0  9991
2 40014  98.0426 256.5918 0027741 191.9477 168.1100 15.15547363655244
SAUDISAT 4              
1 40016U 14033G   26164.12870440  .00000648  00000+0  91930-4 0  9990
2 40016  97.7577 310.4039 0046240  86.7938 273.8563 14.79539677645470
APRIZESAT 9             
1 40018U 14033J   26164.27088657  .00000612  00000+0  97311-4 0  9999
2 40018  97.9055 297.5653 0065409 211.8664 147.8580 14.74209484642984
APRIZESAT 10            
1 40019U 14033K   26164.24909029  .00000381  00000+0  67906-4 0  9992
2 40019  97.9644 291.2964 0077459 286.6451  72.6262 14.70879267641672
TECHDEMOSAT-1 (TDS-1)   
1 40076U 14037H   26164.25725012  .00008453  00000+0  47968-3 0  9991
2 40076  98.3807 156.0806 0004619 284.2695  75.8020 15.13237864647634
TECHNOSAT               
1 42829U 17042E   26164.25990608  .00003897  00000+0  27823-3 0  9998
2 42829  97.4267 322.0673 0018791 106.6312 253.6980 15.04933728486115
FLYING LAPTOP           
1 42831U 17042G   26164.31934940  .00003810  00000+0  30084-3 0  9993
2 42831  97.4666 320.0011 0019416 134.2856 225.9965 15.01122379485876
HAWK-A                  
1 43765U 18099H   26164.08203074  .00006907  00000+0  27876-3 0  9999
2 43765  97.3920 216.3712 0033241 301.1058  58.6920 15.24597677412471
HAWK-B                  
1 43794U 18099AN  26164.09868326  .00006382  00000+0  27265-3 0  9998
2 43794  97.3970 215.8113 0030746 319.9887  39.9084 15.22783459412411
HAWK-C                  
1 43799U 18099AT  26164.13333547  .00007746  00000+0  27966-3 0  9993
2 43799  97.3897 217.3141 0038893 300.7575  58.9837 15.28049943413298
SALSAT                  
1 46495U 20068K   26164.15546278  .00007973  00000+0  27935-3 0  9995
2 46495  97.8846 166.9746 0008357 325.1548  34.9143 15.29744309314749
HAWK-2C                 
1 47502U 21006CT  26164.10960916  .00006782  00000+0  20443-3 0  9996
2 47502  97.2282 208.5007 0006208 200.6009 159.4985 15.34616618298871
HAWK-2A                 
1 47505U 21006CW  26164.11214147  .00006814  00000+0  20529-3 0  9999
2 47505  97.2325 209.1785 0005639 203.8272 156.2712 15.34631657298879
HAWK-2B                 
1 47508U 21006CZ  26164.10790297  .00007481  00000+0  22455-3 0  9997
2 47508  97.2195 207.5126 0006200 202.1962 157.9014 15.34713288298875
HAWK-3B                 
1 48931U 21059BE  26164.11607043  .00042635  00000+0  36643-3 0  9997
2 48931  97.6660   0.4406 0003521 351.5770   8.5431 15.69235385277211
HAWK-3C                 
1 48948U 21059BX  26164.11575351  .00044386  00000+0  38125-3 0  9993
2 48948  97.6787   6.1195 0003763 351.9968   8.1232 15.69240510277219
HAWK-3A                 
1 48957U 21059CG  26164.05187714  .00044627  00000+0  38328-3 0  9991
2 48957  97.6726   3.2574 0003909 354.0906   6.0308 15.69241378277202
HAWK-5C                 
1 52754U 22057Y   26164.23844085  .00019272  00000+0  33015-3 0  9997
2 52754  97.6584 323.6515 0005233  94.7440 265.4409 15.51260572225733
HAWK-5B                 
1 52756U 22057AA  26164.23829214  .00019243  00000+0  32960-3 0  9992
2 52756  97.6592 322.0002 0005890  87.7627 272.4298 15.51260986225739
